H1 CPF 01  gfz 2022 09 06 12  7492 terrasarx 
H2 0702601  6201 31698    2022 09 06 12 59 42 2022 09 11 00 00 42   120 1 1  0 0 0
H9
10 0 59831  85662.000000  0     955100.718  -1249920.771  -6713354.084
10 0 59831  85782.000000  0     959775.629  -2139196.990  -6484221.580
10 0 59831  85902.000000  0     932585.639  -2991211.883  -6141939.036
10 0 59831  86022.000000  0     874777.188  -3790620.089  -5692406.019
10 0 59831  86142.000000  0     788386.138  -4522986.519  -5143387.089
10 0 59831  86262.000000  0     676187.236  -5175048.309  -4504388.655
10 0 59831  86382.000000  0     541625.875  -5734961.233  -3786506.013
10 0 59832    102.000000  0     388733.574  -6192524.458  -3002239.595
10 0 59832    222.000000  0     222028.984  -6539377.725  -2165283.981
10 0 59832    342.000000  0      46406.516  -6769167.649  -1290291.826
10 0 59832    462.000000  0    -132985.417  -6877676.468   -392615.453
10 0 59832    582.000000  0    -310873.372  -6862909.003    511967.290
10 0 59832    702.000000  0    -481991.905  -6725136.312   1407536.898
10 0 59832    822.000000  0    -641217.302  -6466894.705   2278321.215
10 0 59832    942.000000  0    -783698.505  -6092938.247   3108983.002
10 0 59832   1062.000000  0    -904980.615  -5610144.984   3884898.835
10 0 59832   1182.000000  0   -1001119.355  -5027381.340   4592420.628
10 0 59832   1302.000000  0   -1068783.786  -4355329.998   5219117.285
10 0 59832   1422.000000  0   -1105343.530  -3606285.012   5753992.930
10 0 59832   1542.000000  0   -1108940.004  -2793916.564   6187677.674
10 0 59832   1662.000000  0   -1078538.705  -1933012.853   6512584.714
10 0 59832   1782.000000  0   -1013962.570  -1039207.541   6723036.013
10 0 59832   1902.000000  0    -915906.963   -128693.765   6815356.832
10 0 59832   2022.000000  0    -785935.397    782069.887   6787935.750
10 0 59832   2142.000000  0    -626454.501   1676656.403   6641251.424
10 0 59832   2262.000000  0    -440669.308   2538966.214   6377864.667
10 0 59832   2382.000000  0    -232519.952   3353516.753   6002376.455
10 0 59832   2502.000000  0      -6601.216   4105722.107   5521352.511
10 0 59832   2622.000000  0     231934.246   4782157.803   4943214.071
10 0 59832   2742.000000  0     477488.024   5370807.267   4278097.180
10 0 59832   2862.000000  0     724140.092   5861283.116   3537677.498
10 0 59832   2982.000000  0     965782.459   6245018.493   2734971.789
10 0 59832   3102.000000  0    1196262.755   6515432.593   1884107.663
10 0 59832   3222.000000  0    1409529.466   6668049.345   1000068.576
10 0 59832   3342.000000  0    1599777.575   6700577.109     98423.386
10 0 59832   3462.000000  0    1761590.668   6612943.378   -804955.917
10 0 59832   3582.000000  0    1890075.155   6407285.322  -1694181.655
10 0 59832   3702.000000  0    1980983.978   6087896.979  -2553637.187
10 0 59832   3822.000000  0    2030826.650   5661133.990  -3368257.442
10 0 59832   3942.000000  0    2036962.842   5135277.977  -4123797.109
10 0 59832   4062.000000  0    1997677.168   4520363.935  -4807079.776
10 0 59832   4182.000000  0    1912233.406   3827977.257  -5406222.913
10 0 59832   4302.000000  0    1780908.270   3071026.507  -5910836.485
10 0 59832   4422.000000  0    1605003.428   2263495.857  -6312193.461
10 0 59832   4542.000000  0    1386836.174   1420183.338  -6603368.652
10 0 59832   4662.000000  0    1129710.355    556430.923  -6779347.443
10 0 59832   4782.000000  0     837866.397   -312151.247  -6837103.723
10 0 59832   4902.000000  0     516411.626  -1169961.845  -6775645.442
10 0 59832   5022.000000  0     171232.646  -2001681.223  -6596028.172
10 0 59832   5142.000000  0    -191108.824  -2792536.868  -6301339.734
10 0 59832   5262.000000  0    -563497.224  -3528562.020  -5896654.475
10 0 59832   5382.000000  0    -938398.214  -4196840.386  -5388953.965
10 0 59832   5502.000000  0   -1308005.867  -4785734.143  -4787018.266
10 0 59832   5622.000000  0   -1664400.689  -5285092.510  -4101285.717
10 0 59832   5742.000000  0   -1999715.247  -5686435.355  -3343681.827
10 0 59832   5862.000000  0   -2306303.631  -5983107.528  -2527419.611
10 0 59832   5982.000000  0   -2576911.259  -6170400.774  -1666774.081
10 0 59832   6102.000000  0   -2804841.144  -6245639.982   -776833.355
10 0 59832   6222.000000  0   -2984112.315  -6208229.674    126769.784
10 0 59832   6342.000000  0   -3109605.557  -6059658.063   1028139.374
10 0 59832   6462.000000  0   -3177192.833  -5803459.235   1911404.432
10 0 59832   6582.000000  0   -3183846.885  -5445133.462   2761007.787
10 0 59832   6702.000000  0   -3127727.932  -4992027.954   3561988.145
10 0 59832   6822.000000  0   -3008245.365  -4453181.937   4300249.708
10 0 59832   6942.000000  0   -2826093.532  -3839139.691   4962813.802
10 0 59832   7062.000000  0   -2583261.179  -3161736.245   5538047.672
10 0 59832   7182.000000  0   -2283013.047  -2433861.573   6015866.158
10 0 59832   7302.000000  0   -1929845.637  -1669210.154   6387903.794
10 0 59832   7422.000000  0   -1529417.695   -882019.457   6647656.995
10 0 59832   7542.000000  0   -1088456.711    -86800.836   6790590.913
10 0 59832   7662.000000  0    -614645.585    701927.486   6814211.709
10 0 59832   7782.000000  0    -116489.043   1469904.439   6718108.338
10 0 59832   7902.000000  0     396838.940   2203383.787   6503959.517
10 0 59832   8022.000000  0     915663.803   2889380.092   6175505.732
10 0 59832   8142.000000  0    1429991.676   3515898.902   5738488.013
10 0 59832   8262.000000  0    1929700.817   4072149.562   5200553.508
10 0 59832   8382.000000  0    2404740.875   4548736.323   4571128.053
10 0 59832   8502.000000  0    2845336.223   4937823.255   3861255.426
10 0 59832   8622.000000  0    3242187.268   5233268.819   3083407.756
10 0 59832   8742.000000  0    3586668.972   5430731.977   2251269.115
10 0 59832   8862.000000  0    3871019.979   5527740.778   1379489.504
10 0 59832   8982.000000  0    4088514.359   5523722.378    483422.374
10 0 59832   9102.000000  0    4233615.481   5419996.199   -421154.362
10 0 59832   9222.000000  0    4302106.400   5219726.056  -1318324.610
10 0 59832   9342.000000  0    4291194.432   4927836.793  -2192321.889
10 0 59832   9462.000000  0    4199586.301   4550896.034  -3027813.494
10 0 59832   9582.000000  0    4027532.021   4096964.485  -3810174.668
10 0 59832   9702.000000  0    3776836.956   3575418.271  -4525745.345
10 0 59832   9822.000000  0    3450844.100   2996749.990  -5162065.711
10 0 59832   9942.000000  0    3054385.508   2372352.439  -5708087.474
10 0 59832  10062.000000  0    2593705.162   1714290.597  -6154356.520
10 0 59832  10182.000000  0    2076355.708   1035066.689  -6493165.561
10 0 59832  10302.000000  0    1511071.691    347383.958  -6718674.660
10 0 59832  10422.000000  0     907622.724   -336086.716  -6827002.496
10 0 59832  10542.000000  0     276645.344  -1002936.075  -6816286.707
10 0 59832  10662.000000  0    -370540.854  -1641236.099  -6686710.440
10 0 59832  10782.000000  0   -1022130.520  -2239747.016  -6440499.922
10 0 59832  10902.000000  0   -1666042.996  -2788111.782  -6081891.433
10 0 59832  11022.000000  0   -2290141.049  -3277033.520  -5617065.471
10 0 59832  11142.000000  0   -2882455.438  -3698433.609  -5054051.565
10 0 59832  11262.000000  0   -3431413.964  -4045589.544  -4402601.857
10 0 59832  11382.000000  0   -3926068.941  -4313247.721  -3674032.284
10 0 59832  11502.000000  0   -4356318.280  -4497709.054  -2881035.066
10 0 59832  11622.000000  0   -4713116.334  -4596885.522  -2037463.413
10 0 59832  11742.000000  0   -4988668.701  -4610325.103  -1158091.636
10 0 59832  11862.000000  0   -5176605.922  -4539204.303   -258354.882
10 0 59832  11982.000000  0   -5272131.644  -4386288.173    645926.595
10 0 59832  12102.000000  0   -5272140.520  -4155857.710   1538834.032
10 0 59832  12222.000000  0   -5175301.568  -3853605.320   2404640.220
10 0 59832  12342.000000  0   -4982105.311  -3486501.650   3228095.288
10 0 59832  12462.000000  0   -4694873.957  -3062637.980   3994702.370
10 0 59832  12582.000000  0   -4317734.258  -2591047.708   4690978.361
10 0 59832  12702.000000  0   -3856553.264  -2081511.400   5304692.186
10 0 59832  12822.000000  0   -3318841.508  -1544352.287   5825077.191
10 0 59832  12942.000000  0   -2713625.253   -990225.804   6243017.365
10 0 59832  13062.000000  0   -2051288.477   -429905.905   6551202.980
10 0 59832  13182.000000  0   -1343388.798    125925.923   6744251.386
10 0 59832  13302.000000  0    -602453.223    666882.601   6818794.049
10 0 59832  13422.000000  0     158243.629   1183064.386   6773531.780
10 0 59832  13542.000000  0     924916.724   1665239.630   6609256.150
10 0 59832  13662.000000  0    1683519.872   2105010.158   6328836.215
10 0 59832  13782.000000  0    2420002.089   2494957.444   5937171.079
10 0 59832  13902.000000  0    3120568.011   2828768.965   5441110.451
10 0 59832  14022.000000  0    3771939.399   3101342.985   4849341.167
10 0 59832  14142.000000  0    4361609.969   3308868.979   4172239.690
10 0 59832  14262.000000  0    4878090.465   3448882.026   3421696.574
10 0 59832  14382.000000  0    5311142.206   3520291.471   2610909.223
10 0 59832  14502.000000  0    5651986.002   3523378.996   1754147.587
10 0 59832  14622.000000  0    5893485.674   3459769.716    866499.476
10 0 59832  14742.000000  0    6030300.916   3332375.144    -36402.510
10 0 59832  14862.000000  0    6059003.991   3145308.599   -938665.136
10 0 59832  14982.000000  0    5978158.378   2903775.803  -1824422.918
10 0 59832  15102.000000  0    5788356.396   2613944.730  -2678124.260
10 0 59832  15222.000000  0    5492216.828   2282797.911  -3484810.267
10 0 59832  15342.000000  0    5094342.711   1917969.685  -4230379.631
10 0 59832  15462.000000  0    4601239.735   1527573.334  -4901835.379
10 0 59832  15582.000000  0    4021197.783   1120022.986  -5487505.571
10 0 59832  15702.000000  0    3364142.244    703855.381  -5977237.531
99
